{"signature":{"version":"1.3","source":"NASA/JPL Small-Body Database (SBDB) API"},"orbit":{"orbit_id":"K273/8","source":"JPL","cov_epoch":"2459847.5","comment":null,"n_obs_used":640,"last_obs":"2025-10-25","not_valid_before":null,"elements":[{"sigma":"2.2167E-7","label":"e","name":"e","title":"eccentricity","value":".8477496967533629","units":null},{"title":"semi-major axis","name":"a","units":"au","value":"2.219688710074586","sigma":"1.3789E-7","label":"a"},{"label":"q","sigma":"5.1128E-7","value":".3379482792219925","units":"au","title":"perihelion distance","name":"q"},{"title":"inclination; angle with respect to x-y ecliptic plane","name":"i","value":"11.41227811179314","units":"deg","sigma":"2.0828E-5","label":"i"},{"sigma":"5.5421E-5","label":"node","name":"om","title":"longitude of the ascending node","value":"334.1935846036774","units":"deg"},{"value":"187.1342463695676","units":"deg","name":"w","title":"argument of perihelion","label":"peri","sigma":"5.6231E-5"},{"sigma":"1.183E-5","label":"M","title":"mean anomaly","name":"ma","value":"243.1260693210057","units":"deg"},{"value":"2460239.649518549301","units":"TDB","title":"time of perihelion passage","name":"tp","label":"tp","sigma":"7.1607E-5"},{"label":"period","sigma":".00011256","units":"d","value":"1207.915450927171","title":"sidereal orbital period","name":"per"},{"sigma":"2.7772E-8","label":"n","title":"mean motion","name":"n","units":"deg/d","value":".2980341047245246"},{"label":"Q","sigma":"2.5479E-7","value":"4.10142914092718","units":"au","name":"ad","title":"aphelion distance"}],"data_arc":"2546","n_del_obs_used":null,"first_obs":"2018-11-05","condition_code":"1","model_pars":[{"kind":"EST","units":"au/d^2","value":"2.34758107815004E-10","sigma":"6.053E-11","n":1,"desc":"non-gravitational radial acceleration parameter","title":"non-grav. radial accel.","name":"A1"},{"title":"non-grav. transverse accel.","name":"A2","desc":"non-gravitational transverse acceleration parameter","n":2,"units":"au/d^2","value":"-6.540690743894436E-13","kind":"EST","sigma":"3.998E-12"}],"producer":"Davide Farnocchia","soln_date":"2025-12-15 09:34:26","epoch":"2459847.5","two_body":null,"moid_jup":".908573","t_jup":"3.023","rms":".44859","not_valid_after":null,"moid":".167006","n_dop_obs_used":null,"equinox":"J2000","pe_used":"DE441","sb_used":"SB441-N16"},"object":{"des":"2P","orbit_id":"K273/8","fullname":"2P/Encke","orbit_class":{"name":"Encke-type Comet","code":"ETc"},"prefix":"P","neo":true,"pha":false,"spkid":"1000025","kind":"cn"}}
